[{"OBJECT_NAME":"STARLINK-5285","OBJECT_ID":"2023-010AD","EPOCH":"2026-03-09T21:36:57.639168","MEAN_MOTION":14.98339026,"ECCENTRICITY":0.00018655,"INCLINATION":70.0037,"RA_OF_ASC_NODE":23.8112,"ARG_OF_PERICENTER":262.0351,"MEAN_ANOMALY":98.0597,"EPHEMERIS_TYPE":0,"CLASSIFICATION_TYPE":"U","NORAD_CAT_ID":55296,"ELEMENT_SET_NO":999,"REV_AT_EPOCH":17418,"BSTAR":-5.6290354e-5,"MEAN_MOTION_DOT":-7.64e-6,"MEAN_MOTION_DDOT":0},{"OBJECT_NAME":"COSMOS 2251 DEB","OBJECT_ID":"1993-036NN","EPOCH":"2026-03-09T07:26:11.225760","MEAN_MOTION":14.9633519,"ECCENTRICITY":0.00121484,"INCLINATION":74.0636,"RA_OF_ASC_NODE":162.8967,"ARG_OF_PERICENTER":260.3814,"MEAN_ANOMALY":99.5998,"EPHEMERIS_TYPE":0,"CLASSIFICATION_TYPE":"U","NORAD_CAT_ID":34316,"ELEMENT_SET_NO":999,"REV_AT_EPOCH":90502,"BSTAR":0.0021825431,"MEAN_MOTION_DOT":0.00024784,"MEAN_MOTION_DDOT":0}]
